{
  "type": "FeatureCollection",
  "features": [
    {
      "type": "Feature",
      "properties": {
        "norad_id": 30368,
        "name": "FENGYUN 1C DEB",
        "group": "fengyun-1c-debris",
        "lat": -46.23554737377526,
        "lon": 111.03119897755714,
        "alt_km": 866.2969938764118,
        "timestamp": "2025-12-21T16:47:55.014188+00:00",
        "meta_object_name": "FENGYUN 1C DEB",
        "meta_object_id": "1999-025ACF",
        "meta_epoch": "2025-12-20T19:05:30.197760",
        "meta_mean_motion": 13.75373233,
        "meta_eccentricity": 0.01862202,
        "meta_inclination": 99.1885,
        "meta_ra_of_asc_node": 100.4301,
        "meta_arg_of_pericenter": 286.6895,
        "meta_mean_anomaly": 229.483,
        "meta_ephemeris_type": 0,
        "meta_classification_type": "U",
        "meta_norad_cat_id": 30368,
        "meta_element_set_no": 999,
        "meta_rev_at_epoch": 94772,
        "meta_bstar": 0.00039389337,
        "meta_mean_motion_dot": 3.85e-06,
        "meta_mean_motion_ddot": 0,
        "tle_line1": "1 30368U 99025ACF 25354.79548840  .00000385  00000+0  39389-3 0  9999",
        "tle_line2": "2 30368  99.1885 100.4301 0186220 286.6895 229.4830 13.75373233947728"
      },
      "geometry": {
        "type": "Point",
        "coordinates": [
          111.03119897755714,
          -46.23554737377526
        ]
      }
    },
    {
      "type": "Feature",
      "properties": {
        "norad_id": 30369,
        "name": "FENGYUN 1C DEB",
        "group": "fengyun-1c-debris",
        "lat": -67.3451018229319,
        "lon": 14.389251316820378,
        "alt_km": 896.1518422251784,
        "timestamp": "2025-12-21T16:47:55.014198+00:00",
        "meta_object_name": "FENGYUN 1C DEB",
        "meta_object_id": "1999-025ACG",
        "meta_epoch": "2025-12-21T05:31:06.155040",
        "meta_mean_motion": 14.12063441,
        "meta_eccentricity": 0.0099607,
        "meta_inclination": 98.7214,
        "meta_ra_of_asc_node": 352.354,
        "meta_arg_of_pericenter": 171.3311,
        "meta_mean_anomaly": 250.7956,
        "meta_ephemeris_type": 0,
        "meta_classification_type": "U",
        "meta_norad_cat_id": 30369,
        "meta_element_set_no": 999,
        "meta_rev_at_epoch": 97366,
        "meta_bstar": 0.00017295,
        "meta_mean_motion_dot": 2.9e-06,
        "meta_mean_motion_ddot": 0,
        "tle_line1": "1 30369U 99025ACG 25355.22993235  .00000290  00000+0  17295-3 0  9998",
        "tle_line2": "2 30369  98.7214 352.3540 0099607 171.3311 250.7956 14.12063441973665"
      },
      "geometry": {
        "type": "Point",
        "coordinates": [
          14.389251316820378,
          -67.3451018229319
        ]
      }
    },
    {
      "type": "Feature",
      "properties": {
        "norad_id": 30370,
        "name": "FENGYUN 1C DEB",
        "group": "fengyun-1c-debris",
        "lat": 79.51179267491091,
        "lon": -7.641059779186645,
        "alt_km": 884.5341948663327,
        "timestamp": "2025-12-21T16:47:55.014208+00:00",
        "meta_object_name": "FENGYUN 1C DEB",
        "meta_object_id": "1999-025ACH",
        "meta_epoch": "2025-12-21T03:00:47.417184",
        "meta_mean_motion": 14.19189909,
        "meta_eccentricity": 0.00995239,
        "meta_inclination": 99.056,
        "meta_ra_of_asc_node": 51.2586,
        "meta_arg_of_pericenter": 293.189,
        "meta_mean_anomaly": 98.008,
        "meta_ephemeris_type": 0,
        "meta_classification_type": "U",
        "meta_norad_cat_id": 30370,
        "meta_element_set_no": 999,
        "meta_rev_at_epoch": 97213,
        "meta_bstar": 0.0008411548,
        "meta_mean_motion_dot": 1.804e-05,
        "meta_mean_motion_ddot": 0,
        "tle_line1": "1 30370U 99025ACH 25355.12554881  .00001804  00000+0  84115-3 0  9996",
        "tle_line2": "2 30370  99.0560  51.2586 0099523 293.1890  98.0080 14.19189909972139"
      },
      "geometry": {
        "type": "Point",
        "coordinates": [
          -7.641059779186645,
          79.51179267491091
        ]
      }
    },
    {
      "type": "Feature",
      "properties": {
        "norad_id": 30371,
        "name": "FENGYUN 1C DEB",
        "group": "fengyun-1c-debris",
        "lat": 78.15336493173214,
        "lon": -95.4301768174578,
        "alt_km": 787.819143007121,
        "timestamp": "2025-12-21T16:47:55.014218+00:00",
        "meta_object_name": "FENGYUN 1C DEB",
        "meta_object_id": "1999-025ACJ",
        "meta_epoch": "2025-12-21T03:12:48.424320",
        "meta_mean_motion": 14.30272106,
        "meta_eccentricity": 0.00068667,
        "meta_inclination": 98.5748,
        "meta_ra_of_asc_node": 38.0145,
        "meta_arg_of_pericenter": 308.209,
        "meta_mean_anomaly": 117.028,
        "meta_ephemeris_type": 0,
        "meta_classification_type": "U",
        "meta_norad_cat_id": 30371,
        "meta_element_set_no": 999,
        "meta_rev_at_epoch": 98023,
        "meta_bstar": 0.00071600846,
        "meta_mean_motion_dot": 1.814e-05,
        "meta_mean_motion_ddot": 0,
        "tle_line1": "1 30371U 99025ACJ 25355.13389380  .00001814  00000+0  71601-3 0  9995",
        "tle_line2": "2 30371  98.5748  38.0145 0006866 308.2090 117.0280 14.30272106980233"
      },
      "geometry": {
        "type": "Point",
        "coordinates": [
          -95.4301768174578,
          78.15336493173214
        ]
      }
    },
    {
      "type": "Feature",
      "properties": {
        "norad_id": 30374,
        "name": "FENGYUN 1C DEB",
        "group": "fengyun-1c-debris",
        "lat": 71.79863082608537,
        "lon": 70.1030787228437,
        "alt_km": 658.670828126762,
        "timestamp": "2025-12-21T16:47:55.014228+00:00",
        "meta_object_name": "FENGYUN 1C DEB",
        "meta_object_id": "1999-025ACM",
        "meta_epoch": "2025-12-21T08:21:31.933728",
        "meta_mean_motion": 14.61389314,
        "meta_eccentricity": 0.003958,
        "meta_inclination": 99.2724,
        "meta_ra_of_asc_node": 219.9174,
        "meta_arg_of_pericenter": 141.4261,
        "meta_mean_anomaly": 275.5295,
        "meta_ephemeris_type": 0,
        "meta_classification_type": "U",
        "meta_norad_cat_id": 30374,
        "meta_element_set_no": 999,
        "meta_rev_at_epoch": 99048,
        "meta_bstar": 0.001111,
        "meta_mean_motion_dot": 5.501e-05,
        "meta_mean_motion_ddot": 0,
        "tle_line1": "1 30374U 99025ACM 25355.34828627  .00005501  00000+0  11110-2 0  9998",
        "tle_line2": "2 30374  99.2724 219.9174 0039580 141.4261 275.5295 14.61389314990484"
      },
      "geometry": {
        "type": "Point",
        "coordinates": [
          70.1030787228437,
          71.79863082608537
        ]
      }
    },
    {
      "type": "Feature",
      "properties": {
        "norad_id": 30377,
        "name": "FENGYUN 1C DEB",
        "group": "fengyun-1c-debris",
        "lat": 59.74002202430053,
        "lon": -0.634045978000225,
        "alt_km": 976.600839053518,
        "timestamp": "2025-12-21T16:47:55.014238+00:00",
        "meta_object_name": "FENGYUN 1C DEB",
        "meta_object_id": "1999-025ACQ",
        "meta_epoch": "2025-12-21T12:07:24.102048",
        "meta_mean_motion": 13.99180064,
        "meta_eccentricity": 0.0117932,
        "meta_inclination": 98.8926,
        "meta_ra_of_asc_node": 14.7431,
        "meta_arg_of_pericenter": 242.2358,
        "meta_mean_anomaly": 278.0687,
        "meta_ephemeris_type": 0,
        "meta_classification_type": "U",
        "meta_norad_cat_id": 30377,
        "meta_element_set_no": 999,
        "meta_rev_at_epoch": 96329,
        "meta_bstar": 0.00034144,
        "meta_mean_motion_dot": 4.82e-06,
        "meta_mean_motion_ddot": 0,
        "tle_line1": "1 30377U 99025ACQ 25355.50514007  .00000482  00000+0  34144-3 0  9999",
        "tle_line2": "2 30377  98.8926  14.7431 0117932 242.2358 278.0687 13.99180064963291"
      },
      "geometry": {
        "type": "Point",
        "coordinates": [
          -0.634045978000225,
          59.74002202430053
        ]
      }
    },
    {
      "type": "Feature",
      "properties": {
        "norad_id": 30379,
        "name": "FENGYUN 1C DEB",
        "group": "fengyun-1c-debris",
        "lat": 73.37518969668108,
        "lon": -138.74292278940476,
        "alt_km": 881.105898026387,
        "timestamp": "2025-12-21T16:47:55.014248+00:00",
        "meta_object_name": "FENGYUN 1C DEB",
        "meta_object_id": "1999-025ACS",
        "meta_epoch": "2025-12-21T11:58:01.934400",
        "meta_mean_motion": 14.08043646,
        "meta_eccentricity": 0.0035566,
        "meta_inclination": 98.7577,
        "meta_ra_of_asc_node": 9.9796,
        "meta_arg_of_pericenter": 253.8397,
        "meta_mean_anomaly": 270.6696,
        "meta_ephemeris_type": 0,
        "meta_classification_type": "U",
        "meta_norad_cat_id": 30379,
        "meta_element_set_no": 999,
        "meta_rev_at_epoch": 96940,
        "meta_bstar": 0.00031077,
        "meta_mean_motion_dot": 4.89e-06,
        "meta_mean_motion_ddot": 0,
        "tle_line1": "1 30379U 99025ACS 25355.49863350  .00000489  00000+0  31077-3 0  9996",
        "tle_line2": "2 30379  98.7577   9.9796 0035566 253.8397 270.6696 14.08043646969409"
      },
      "geometry": {
        "type": "Point",
        "coordinates": [
          -138.74292278940476,
          73.37518969668108
        ]
      }
    }
  ]
}